{
"type": "FeatureCollection",
"name": "lab_field_trips",
"crs": { "type": "name", "properties": { "name": "urn:ogc:def:crs:OGC:1.3:CRS84" } },
"features": [
{ "type": "Feature", "properties": { "title": "Angelus Oaks", "SymbolID": "Forest", "SHAPE_Leng": 3905.53258891, "SHAPE_Area": 996632.81971199997 }, "geometry": { "type": "Polygon", "coordinates": [ [ [ -116.981216774366217, 34.147682415183432 ], [ -116.980919572144359, 34.147799540336273 ], [ -116.980934171564371, 34.148210327210506 ], [ -116.980530129112495, 34.148676870182641 ], [ -116.98048721389641, 34.148712386109892 ], [ -116.980444298680339, 34.148747902765642 ], [ -116.980276653285401, 34.14867391950451 ], [ -116.980429860957116, 34.148943010668653 ], [ -116.979843483858772, 34.149174093292011 ], [ -116.979800567744377, 34.149209609010192 ], [ -116.979714737312236, 34.149245125456886 ], [ -116.979671822096179, 34.149280641145211 ], [ -116.979585991664038, 34.149316156818593 ], [ -116.979693743684052, 34.149441039570291 ], [ -116.979414329901459, 34.149387188120564 ], [ -116.978513107669073, 34.149742345221277 ], [ -116.978470192453003, 34.149777860700532 ], [ -116.978384362020861, 34.149777860700532 ], [ -116.978320879876378, 34.149912015450887 ], [ -116.978196506328672, 34.149931314638266 ], [ -116.977354393241967, 34.150061984740432 ], [ -116.977225647593784, 34.150061984740432 ], [ -116.977182732377699, 34.150061984740432 ], [ -116.977096901047247, 34.150061984740432 ], [ -116.976968155399049, 34.150061984740432 ], [ -116.976902872132385, 34.150161610251885 ], [ -116.976861388830912, 34.150155230981326 ], [ -116.976024017950593, 34.150026469380634 ], [ -116.975981102734522, 34.150026469380634 ], [ -116.975919563645988, 34.149956108437522 ], [ -116.975895271404056, 34.150026469380634 ], [ -116.975749521545865, 34.149915902051838 ], [ -116.974865303523487, 34.149706828983696 ], [ -116.974822388307416, 34.149671313474578 ], [ -116.974779473091345, 34.149671313474578 ], [ -116.974699864390885, 34.149675274428816 ], [ -116.974736557875275, 34.149635797950523 ], [ -116.974625200916037, 34.149627744452268 ], [ -116.974135743053694, 34.149316156818593 ], [ -116.973997105157594, 34.149383623398244 ], [ -116.973970144020967, 34.149366459945959 ], [ -116.973277436037392, 34.148925482103209 ], [ -116.973148689490884, 34.148889966265564 ], [ -116.973105774274799, 34.148854450412976 ], [ -116.97305293896305, 34.14894921904208 ], [ -116.972290382474554, 34.148463773562206 ], [ -116.972247467258498, 34.148463773562206 ], [ -116.972274589193546, 34.148399079255057 ], [ -116.972199925718698, 34.148351547816965 ], [ -116.971818314199481, 34.148108611829038 ], [ -116.971818314199481, 34.148073095647945 ], [ -116.971746873879894, 34.148086374908416 ], [ -116.971632093441102, 34.147917501694238 ], [ -116.971303329810056, 34.147433799604343 ], [ -116.971260414593971, 34.147398283139523 ], [ -116.971245281574696, 34.147363134663912 ], [ -116.971243982610801, 34.1473266056 ], [ -116.9712174993779, 34.14658139809697 ], [ -116.971058230772996, 34.146309341214611 ], [ -116.971560822004747, 34.145728987245128 ], [ -116.971635380376739, 34.145676722941133 ], [ -116.971690584545868, 34.145612977382463 ], [ -116.971989975063778, 34.145267261976542 ], [ -116.971986344971711, 34.14517867853727 ], [ -116.972311748005268, 34.144802923878103 ], [ -116.972290382474554, 34.144201730493052 ], [ -116.972333298588936, 34.144166212669404 ], [ -116.972485894507926, 34.144126980449059 ], [ -116.972484633273268, 34.144091493076282 ], [ -116.972462044237162, 34.143455850830385 ], [ -116.972518753084387, 34.143457183884713 ], [ -116.972537547636762, 34.143435481043348 ], [ -116.973053189593003, 34.142840037686639 ], [ -116.973534928232112, 34.142283741444373 ], [ -116.973576585806796, 34.142090802532181 ], [ -116.974273941673644, 34.141982583910497 ], [ -116.97507988050215, 34.141857515412454 ], [ -116.975766525755873, 34.141750958196788 ], [ -116.975852356188014, 34.141750958196788 ], [ -116.975895271404056, 34.141750958196788 ], [ -116.975964301543783, 34.141634635065522 ], [ -116.976123353654714, 34.141856127314483 ], [ -116.976385154169535, 34.141699355370704 ], [ -116.977053985831191, 34.141857515412454 ], [ -116.977219152774254, 34.14180060040394 ], [ -116.978513107669073, 34.14199959049968 ], [ -116.979714737312236, 34.142283741444373 ], [ -116.979800567744377, 34.142283741444373 ], [ -116.980358467349902, 34.142638927666255 ], [ -116.980401382565987, 34.142674446131956 ], [ -116.980401382565987, 34.142709964582743 ], [ -116.980401382565987, 34.142745483018594 ], [ -116.980787621307215, 34.143313778191917 ], [ -116.980830536523285, 34.143349296373927 ], [ -116.981064995015799, 34.143411474903246 ], [ -116.981066349675231, 34.143449590009773 ], [ -116.981088028717991, 34.14391758674234 ], [ -116.981088028717991, 34.143953104670508 ], [ -116.981088028717991, 34.143988622583748 ], [ -116.981130943934062, 34.144059659108926 ], [ -116.981105721037537, 34.144166826776335 ], [ -116.981130943934062, 34.144130694830878 ], [ -116.981108243506853, 34.144237801443595 ], [ -116.981130943934062, 34.144876568535743 ], [ -116.981130943934062, 34.14498312106597 ], [ -116.981130943934062, 34.145018639289667 ], [ -116.98113220516872, 34.145089643723317 ], [ -116.981133466403392, 34.145125129933341 ], [ -116.981173859150147, 34.146261745407209 ], [ -116.981173859150147, 34.146368296190388 ], [ -116.981173859150147, 34.146403813088241 ], [ -116.981173859150147, 34.146474846839162 ], [ -116.981216774366217, 34.147682415183432 ] ] ] } },
{ "type": "Feature", "properties": { "title": "Forest Falls", "SymbolID": "Forest", "SHAPE_Leng": 2143.1756641500001, "SHAPE_Area": 161488.08260299999 }, "geometry": { "type": "MultiPolygon", "coordinates": [ [ [ [ -116.892438609558084, 34.080402285262736 ], [ -116.892425707055679, 34.080396844160347 ], [ -116.892424927318018, 34.080396353099552 ], [ -116.892438609558084, 34.080402285262736 ] ] ], [ [ [ -116.893148327141589, 34.082525638165798 ], [ -116.892939911707444, 34.082644527610945 ], [ -116.892940218931273, 34.082645746302241 ], [ -116.892927789841011, 34.082647900216251 ], [ -116.892639504296653, 34.082697842733971 ], [ -116.892618046239463, 34.082706729204546 ], [ -116.892435655897444, 34.082706729204546 ], [ -116.892398164709064, 34.082682591244797 ], [ -116.892375678979178, 34.082689686137627 ], [ -116.892178163702738, 34.082626755399787 ], [ -116.892138031467397, 34.082606312925463 ], [ -116.891867027712493, 34.082511237796481 ], [ -116.891836470619793, 34.082499204874217 ], [ -116.89182352230327, 34.082494605385421 ], [ -116.891470061290121, 34.082369062755149 ], [ -116.891464260868332, 34.082350663282057 ], [ -116.891446140950734, 34.082344222349519 ], [ -116.891116009185509, 34.082226886731078 ], [ -116.89107523734971, 34.082256938253565 ], [ -116.891057236908054, 34.082244593552801 ], [ -116.890837059831895, 34.082093597003258 ], [ -116.890826330354159, 34.082093597003258 ], [ -116.890826330354159, 34.082084711212332 ], [ -116.890821394111654, 34.082065286422264 ], [ -116.890812566367387, 34.082062151135126 ], [ -116.890601024796055, 34.081986964474716 ], [ -116.890590296216601, 34.081978078672655 ], [ -116.890578992715419, 34.081979189490923 ], [ -116.890569929612482, 34.081975970870644 ], [ -116.89037571923798, 34.081906990734247 ], [ -116.890375272775273, 34.081877998569908 ], [ -116.890364990658526, 34.081906990734247 ], [ -116.890355519720487, 34.081873192954198 ], [ -116.889946566178978, 34.081773700502872 ], [ -116.889935837599538, 34.081773700502872 ], [ -116.889925108121773, 34.081764813934392 ], [ -116.889899719935201, 34.081763519340434 ], [ -116.889881595526035, 34.08175708208335 ], [ -116.889453039846714, 34.081604865214253 ], [ -116.889442311267288, 34.081604865214253 ], [ -116.889399395152893, 34.081604865214253 ], [ -116.889377937994013, 34.081595979372089 ], [ -116.889356479936822, 34.081595979372089 ], [ -116.889321611829075, 34.081594655758735 ], [ -116.889301857875964, 34.081589850126932 ], [ -116.888852225025133, 34.081480460362606 ], [ -116.888820038388502, 34.08147157450739 ], [ -116.888809309809062, 34.08147157450739 ], [ -116.888792964962462, 34.081490221186733 ], [ -116.888762663889622, 34.081483961730086 ], [ -116.888401613908925, 34.081409372006483 ], [ -116.888390885329514, 34.081409372006483 ], [ -116.888369427272295, 34.081400486143792 ], [ -116.888358047414286, 34.081402649017754 ], [ -116.88834794675725, 34.081400562034126 ], [ -116.887972459951612, 34.081267194371222 ], [ -116.887957489527409, 34.081282169338451 ], [ -116.887939489085753, 34.08126982523958 ], [ -116.887650595381956, 34.081071700383937 ], [ -116.887664749237544, 34.081054424851892 ], [ -116.887486945693396, 34.080932486384604 ], [ -116.887477897861842, 34.080763504333326 ], [ -116.887596950688121, 34.080707368867422 ], [ -116.887607680165871, 34.080698482931076 ], [ -116.887618408745325, 34.080698482931076 ], [ -116.887624666409607, 34.080681379937616 ], [ -116.887634907203818, 34.080679606172424 ], [ -116.887865172360605, 34.080571032177275 ], [ -116.888136019808655, 34.080571032177275 ], [ -116.888401613908925, 34.080538532196904 ], [ -116.888462544838035, 34.080577701661838 ], [ -116.888755665115227, 34.080485214970359 ], [ -116.888776519504546, 34.080481830374453 ], [ -116.889084185302849, 34.08042852873686 ], [ -116.889495955062785, 34.080298605157196 ], [ -116.889742718678065, 34.080298605157196 ], [ -116.88976417583693, 34.080310122777767 ], [ -116.890179798471124, 34.080310122777767 ], [ -116.890450821090653, 34.080280833197769 ], [ -116.890460645066611, 34.080275756663553 ], [ -116.890884924765189, 34.080223838053726 ], [ -116.891126737764949, 34.080147539662896 ], [ -116.891157593098342, 34.08011633413917 ], [ -116.891523705085632, 34.080191971112491 ], [ -116.891545163142823, 34.080191971112491 ], [ -116.891588078358893, 34.080200857101978 ], [ -116.891620264995524, 34.080209743090577 ], [ -116.891630993574964, 34.080209743090577 ], [ -116.891641042129706, 34.080220887218623 ], [ -116.891663762319894, 34.080225580579096 ], [ -116.892017231417896, 34.080298605157196 ], [ -116.892060132260909, 34.080316426219028 ], [ -116.892360554044743, 34.080378581160623 ], [ -116.892371283522493, 34.080378581160623 ], [ -116.892392740681359, 34.080378581160623 ], [ -116.892403469260813, 34.080387467130578 ], [ -116.892425707055679, 34.080396844160347 ], [ -116.892486245420983, 34.080434954190444 ], [ -116.892650232876122, 34.080547418150026 ], [ -116.892660961455533, 34.080556304102259 ], [ -116.89265274097238, 34.080573413817206 ], [ -116.892670740515726, 34.080585758761636 ], [ -116.89276105084619, 34.080647694016911 ], [ -116.892946360712884, 34.080692777717481 ], [ -116.89307938593511, 34.080725141481381 ], [ -116.8931008439923, 34.080734027414984 ], [ -116.893121059679444, 34.080753042550747 ], [ -116.893111572571712, 34.080742913347585 ], [ -116.893132694659016, 34.080761022254883 ], [ -116.893261776277143, 34.080849547442618 ], [ -116.893261776277143, 34.080858433363098 ], [ -116.893272505754879, 34.080867319282703 ], [ -116.893277250656226, 34.080893078251052 ], [ -116.893280151316262, 34.080893784332801 ], [ -116.893390522823651, 34.080920636268687 ], [ -116.893401251403091, 34.080929522181712 ], [ -116.893411979982517, 34.080929522181712 ], [ -116.893401554135338, 34.080967808306369 ], [ -116.89341433177195, 34.080970916849076 ], [ -116.893572913165684, 34.081009497589378 ], [ -116.893583641745124, 34.081018383493074 ], [ -116.89359437032455, 34.081018383493074 ], [ -116.89360509890399, 34.08102727013987 ], [ -116.893626556961195, 34.08104504194273 ], [ -116.893648015018385, 34.081071700383937 ], [ -116.893833771347758, 34.081199093094398 ], [ -116.894077168077374, 34.081258308493574 ], [ -116.894087896656814, 34.081258308493574 ], [ -116.89409862613455, 34.081258308493574 ], [ -116.894118503156861, 34.081280590520038 ], [ -116.894120083293444, 34.081276080991913 ], [ -116.894148851840399, 34.081286859664019 ], [ -116.894506321136376, 34.08137382780604 ], [ -116.894527779193552, 34.08137382780604 ], [ -116.894538507772992, 34.081382713671566 ], [ -116.894573162081727, 34.081374519003347 ], [ -116.894593363395828, 34.081378692227901 ], [ -116.894956932252569, 34.081453802050071 ], [ -116.894978944570283, 34.081416337546031 ], [ -116.894989045227348, 34.081418423785287 ], [ -116.895375357630442, 34.081498232814333 ], [ -116.895386086209882, 34.081524891112942 ], [ -116.895675765041233, 34.081524891112942 ], [ -116.895707041684474, 34.081511819396184 ], [ -116.895713611064139, 34.081522751306728 ], [ -116.89576159547336, 34.081613751055542 ], [ -116.895784373155706, 34.081636948877872 ], [ -116.895779206944496, 34.081642589298028 ], [ -116.895707950779524, 34.081720384053973 ], [ -116.895696283460637, 34.081746451531018 ], [ -116.895687197899861, 34.081756370800619 ], [ -116.895589933710781, 34.081862560184391 ], [ -116.895568476551915, 34.081871446742674 ], [ -116.895558087535633, 34.081872185553088 ], [ -116.895545149100585, 34.081876267982814 ], [ -116.895278797720522, 34.081960307065607 ], [ -116.895261610254195, 34.081955151022214 ], [ -116.895225983070048, 34.082022504697719 ], [ -116.894935475093675, 34.082058053090016 ], [ -116.894892559877604, 34.082075824676487 ], [ -116.894914017036498, 34.082075824676487 ], [ -116.894850400144691, 34.082126959445773 ], [ -116.894602881046254, 34.082075824676487 ], [ -116.894600368458413, 34.082084154687848 ], [ -116.894570072775451, 34.082077886346916 ], [ -116.89438830406759, 34.082040280755777 ], [ -116.894377575488178, 34.082031394959245 ], [ -116.894366979859399, 34.082022508417815 ], [ -116.894345528988723, 34.082022508417815 ], [ -116.894173727987251, 34.081986964474716 ], [ -116.894162998509515, 34.081986964474716 ], [ -116.894145969146678, 34.082022509161838 ], [ -116.894152269930046, 34.081986964474716 ], [ -116.89412501953592, 34.082022509161838 ], [ -116.893937692951425, 34.082022509161838 ], [ -116.893755302609392, 34.082022509161838 ], [ -116.893744574029952, 34.082031394959245 ], [ -116.893733845450527, 34.082040280755777 ], [ -116.893733845450527, 34.082049166551322 ], [ -116.893733845450527, 34.082066938883692 ], [ -116.893497811312983, 34.082324632447786 ], [ -116.893487081835218, 34.082333518957512 ], [ -116.893476353255778, 34.08234240472229 ], [ -116.893251047697703, 34.082413492295174 ], [ -116.893148327141589, 34.082525638165798 ] ] ] ] } },
{ "type": "Feature", "properties": { "title": "Harng 'Aki Preserve", "SymbolID": "Shrubland", "SHAPE_Leng": 8465.60034137, "SHAPE_Area": 3311905.3102299999 }, "geometry": { "type": "Polygon", "coordinates": [ [ [ -117.119340640101029, 34.005978293951557 ], [ -117.119997631967237, 34.004764681553148 ], [ -117.120085660576876, 34.004318721808197 ], [ -117.121369986430167, 34.00371407300954 ], [ -117.123374682987887, 34.003986018571908 ], [ -117.12346051342, 34.004057172600724 ], [ -117.123546343852126, 34.004128325825228 ], [ -117.12375332467677, 34.004210260015732 ], [ -117.125615010339558, 34.004462804608785 ], [ -117.127299488041231, 34.003669768289704 ], [ -117.130155306889577, 34.004057172600724 ], [ -117.130241138220043, 34.004128325825228 ], [ -117.130363535474146, 34.004115694951849 ], [ -117.13042448077627, 34.004236950811624 ], [ -117.131013613905907, 34.005409077396216 ], [ -117.131013613905907, 34.0054802294881 ], [ -117.131013613905907, 34.005551382265033 ], [ -117.131278020433385, 34.006034387308411 ], [ -117.130761638265341, 34.006031961127199 ], [ -117.131271106100613, 34.007045565640567 ], [ -117.131356936532754, 34.007045565640567 ], [ -117.131356936532754, 34.007259018368849 ], [ -117.131356936532754, 34.007401319393111 ], [ -117.131040531025064, 34.007753704261603 ], [ -117.13144276786322, 34.007614771227189 ], [ -117.131223366033154, 34.008117454249586 ], [ -117.131614428727488, 34.008895470219834 ], [ -117.131614428727488, 34.008966619390691 ], [ -117.131614428727488, 34.009108918298224 ], [ -117.131860646167084, 34.009284614782466 ], [ -117.131819609328289, 34.009492495595019 ], [ -117.131614428727488, 34.010531891279363 ], [ -117.131614428727488, 34.010603039079065 ], [ -117.131614428727488, 34.01074533524428 ], [ -117.131614428727488, 34.010816482865138 ], [ -117.131567940013227, 34.011398707730024 ], [ -117.13149386223995, 34.011546273094666 ], [ -117.13084195304161, 34.012524013093085 ], [ -117.13084195304161, 34.012595159223523 ], [ -117.13084195304161, 34.012666305294346 ], [ -117.130756121711187, 34.012737452050182 ], [ -117.130498629516453, 34.012950889726021 ], [ -117.130326968652184, 34.013093181956506 ], [ -117.130190760698923, 34.013362351325839 ], [ -117.129568137477179, 34.013438942899334 ], [ -117.127752047603238, 34.013662347004363 ], [ -117.127885033299592, 34.013437196022494 ], [ -117.125348788316884, 34.013093181956506 ], [ -117.125177127452616, 34.013022036243392 ], [ -117.125091297020489, 34.013022036243392 ], [ -117.124875244109816, 34.012774093570464 ], [ -117.124791263308865, 34.012784424498555 ], [ -117.122859698598432, 34.013022036243392 ], [ -117.122688037734136, 34.013022036243392 ], [ -117.122516375971585, 34.013022036243392 ], [ -117.12217305334471, 34.013164327609999 ], [ -117.121595588432299, 34.013180430797092 ], [ -117.121591112127248, 34.013203107498619 ], [ -117.121486408090988, 34.013733492925546 ], [ -117.121691588691775, 34.013903613842153 ], [ -117.121650551852952, 34.014111482601564 ], [ -117.121486408090988, 34.014942954783557 ], [ -117.121486408090988, 34.015014099631586 ], [ -117.121486408090988, 34.01515638765953 ], [ -117.121486408090988, 34.015369819998874 ], [ -117.121466648747983, 34.01579400325749 ], [ -117.121452970101146, 34.015863291109518 ], [ -117.121143084565816, 34.017432970374578 ], [ -117.121143084565816, 34.017504113135857 ], [ -117.121057254133675, 34.017575255092922 ], [ -117.120971423701519, 34.017646396990351 ], [ -117.120875766598502, 34.01803659001984 ], [ -117.120113116685218, 34.018642380272468 ], [ -117.119941454922639, 34.018713522020171 ], [ -117.11978174165165, 34.018551560109692 ], [ -117.119513328637993, 34.018677904617931 ], [ -117.117624026966737, 34.019567211640563 ], [ -117.117538195636271, 34.019567211640563 ], [ -117.117452365204159, 34.019567211640563 ], [ -117.117366534772017, 34.019567211640563 ], [ -117.117099915693998, 34.019460218996052 ], [ -117.116676026762562, 34.019476144526664 ], [ -117.113675815410346, 34.01906922688589 ], [ -117.113444523479203, 34.019061657588018 ], [ -117.113504153647767, 34.0189980861809 ], [ -117.112731677063607, 34.018784662963647 ], [ -117.110585909971974, 34.017219543966789 ], [ -117.110500079539833, 34.017219543966789 ], [ -117.110328417777254, 34.017077258652286 ], [ -117.110242587345098, 34.017006116277877 ], [ -117.109040957701922, 34.015796683067919 ], [ -117.108955127269809, 34.015796683067919 ], [ -117.108880087400848, 34.015750384658993 ], [ -117.108955127269809, 34.015725539620341 ], [ -117.108869296837682, 34.015654395368522 ], [ -117.108010989821381, 34.013946928097468 ], [ -117.108229792475129, 34.013915090595482 ], [ -117.108596459621253, 34.012057709069367 ], [ -117.108983980258415, 34.010094651869586 ], [ -117.111186724793555, 34.010105001739944 ], [ -117.111167282555868, 34.009826056691949 ], [ -117.114104968469348, 34.009464663406732 ], [ -117.116184275501311, 34.008485803205879 ], [ -117.11728070433989, 34.007614771227189 ], [ -117.119340640101029, 34.005978293951557 ] ] ] } },
{ "type": "Feature", "properties": { "title": "Caroline Park", "SymbolID": "Shrubland", "SHAPE_Leng": 1825.8157673799999, "SHAPE_Area": 122221.767207 }, "geometry": { "type": "MultiPolygon", "coordinates": [ [ [ [ -117.158543807209512, 34.022323860428571 ], [ -117.1585330786301, 34.022323860428571 ], [ -117.158528198083133, 34.022321757099263 ], [ -117.158543807209512, 34.022323860428571 ] ] ], [ [ [ -117.158521740992896, 34.022320886730363 ], [ -117.158833486040891, 34.022483921031501 ], [ -117.158840623155811, 34.022497531220537 ], [ -117.158853138484361, 34.022504076469829 ], [ -117.15919396469306, 34.022682319102252 ], [ -117.159723979693837, 34.02332868077896 ], [ -117.159750522215518, 34.023347250907285 ], [ -117.1600994889573, 34.02349763142162 ], [ -117.160121497681757, 34.023481813858041 ], [ -117.160133827957367, 34.023488262242388 ], [ -117.160485726800232, 34.02363990597398 ], [ -117.160495865186562, 34.023677595553167 ], [ -117.160678845721733, 34.023773287638306 ], [ -117.160689574301145, 34.023782179543289 ], [ -117.160719217807213, 34.023794215591003 ], [ -117.160727424815661, 34.023812766259745 ], [ -117.160839778006547, 34.024066726710863 ], [ -117.160850507484284, 34.024075619329651 ], [ -117.160850507484284, 34.024084511202901 ], [ -117.160861236063724, 34.024102295691215 ], [ -117.16097925313251, 34.024369057356871 ], [ -117.16097925313251, 34.024377949199383 ], [ -117.160983704284732, 34.024404967202031 ], [ -117.160980314042845, 34.024400833609775 ], [ -117.160904915746116, 34.024308885698595 ], [ -117.160764676153846, 34.024137863912117 ], [ -117.160426165801951, 34.023960835682026 ], [ -117.16038916689034, 34.024111187561729 ], [ -117.160380229551592, 34.024119978175783 ], [ -117.160356981152034, 34.024449086139747 ], [ -117.160356981152034, 34.024457977973945 ], [ -117.160376789902358, 34.024476430220624 ], [ -117.160375762229677, 34.024494390334041 ], [ -117.160281879299333, 34.024875902807132 ], [ -117.160135338025341, 34.024697197967306 ], [ -117.159123164872256, 34.024440193560167 ], [ -117.157267075713662, 34.023968913799436 ], [ -117.156977397780622, 34.023951130027719 ], [ -117.156462413391168, 34.023888885308239 ], [ -117.156449774993433, 34.023891392877225 ], [ -117.156429585357415, 34.023880834730754 ], [ -117.15596888705889, 34.02363990597398 ], [ -117.15596888705889, 34.023631013309604 ], [ -117.155936700422288, 34.023604337544391 ], [ -117.15588239905999, 34.023617316936829 ], [ -117.15584014051241, 34.023248650939543 ], [ -117.155880435342752, 34.0232437496771 ], [ -117.156019167562008, 34.023061522728725 ], [ -117.15608690412769, 34.022786256571358 ], [ -117.156065446070485, 34.022288290702889 ], [ -117.156037074578862, 34.022279128372759 ], [ -117.155915242365111, 34.02200373757266 ], [ -117.155844493748262, 34.021974255852669 ], [ -117.155715413926771, 34.021682480308783 ], [ -117.155743581500815, 34.021568013580207 ], [ -117.155775447438884, 34.021525426169831 ], [ -117.155792338461183, 34.021532705618746 ], [ -117.155979317397666, 34.021613282085042 ], [ -117.1563378422141, 34.021704317868647 ], [ -117.15649197694718, 34.021770741094542 ], [ -117.156709176108137, 34.021825891847122 ], [ -117.15671151621946, 34.021857479937694 ], [ -117.156902295927921, 34.021905922283558 ], [ -117.156913024507361, 34.021914814384189 ], [ -117.156913024507361, 34.021932599327158 ], [ -117.156923753086815, 34.021932599327158 ], [ -117.156937755127132, 34.021940496713242 ], [ -117.15696216325172, 34.021995668202713 ], [ -117.156955939723446, 34.022083768585958 ], [ -117.156959274269767, 34.022083638290859 ], [ -117.156978890780621, 34.022088619286421 ], [ -117.157309990929733, 34.022172691597405 ], [ -117.157335345878622, 34.022210525524827 ], [ -117.157345009056129, 34.022207321759041 ], [ -117.157664043034345, 34.022101552748971 ], [ -117.157878620012994, 34.022030414585458 ], [ -117.157897086680293, 34.02203850554384 ], [ -117.158025017556525, 34.022070989241222 ], [ -117.158141547015191, 34.022155134534827 ], [ -117.158528198083133, 34.022321757099263 ], [ -117.158521740992896, 34.022320886730363 ] ] ] ] } },
{ "type": "Feature", "properties": { "title": "Snow Creek", "SymbolID": "Desert", "SHAPE_Leng": 5915.9166638899997, "SHAPE_Area": 1440086.7528200001 }, "geometry": { "type": "Polygon", "coordinates": [ [ [ -116.68726901672899, 33.897964684318644 ], [ -116.687300310440236, 33.897944831903807 ], [ -116.687272295579774, 33.898000451461556 ], [ -116.687300310440236, 33.898247611112964 ], [ -116.687300310440236, 33.898301042801961 ], [ -116.687300310440236, 33.898354473711841 ], [ -116.687243135367339, 33.898402177429801 ], [ -116.687300310440236, 33.898390094548375 ], [ -116.687252284708521, 33.898482897446215 ], [ -116.687300310440236, 33.898906596869949 ], [ -116.687300310440236, 33.898924407547582 ], [ -116.687300310440236, 33.898995648729581 ], [ -116.687300310440236, 33.89903126929827 ], [ -116.687300310440236, 33.899066889852072 ], [ -116.687300310440236, 33.899084700496218 ], [ -116.687354817516706, 33.899135550323265 ], [ -116.687321768497412, 33.899138130915041 ], [ -116.687326866436663, 33.899226196823889 ], [ -116.687407598929553, 33.899601197864705 ], [ -116.687429056986744, 33.899619008397231 ], [ -116.687450514145638, 33.899672439226883 ], [ -116.687450514145638, 33.899690248998901 ], [ -116.687471972202815, 33.899743679783917 ], [ -116.68749342936168, 33.899779300040116 ], [ -116.687553279617504, 33.899809687559795 ], [ -116.687772379613591, 33.900171123367322 ], [ -116.687815294829662, 33.900224553105375 ], [ -116.687815294829662, 33.900277983555569 ], [ -116.687836752886867, 33.900295793946725 ], [ -116.687848607953669, 33.900308770544484 ], [ -116.687873929664917, 33.900351562584142 ], [ -116.688072787024396, 33.90068761415484 ], [ -116.688072787024396, 33.900705424460448 ], [ -116.68809424418329, 33.900741044314856 ], [ -116.688213995000552, 33.900736594536689 ], [ -116.688115702240466, 33.900776664154392 ], [ -116.688116084922797, 33.900910975264019 ], [ -116.688459024867342, 33.901150672689461 ], [ -116.688459024867342, 33.901168482898328 ], [ -116.688574831182166, 33.901196734518102 ], [ -116.688577020376528, 33.901216049342395 ], [ -116.688625618335095, 33.901644777666462 ], [ -116.688115702240466, 33.901684967644258 ], [ -116.688072058490704, 33.901676103974879 ], [ -116.687600717851026, 33.901702777741477 ], [ -116.687557802634956, 33.901720587089407 ], [ -116.687514887418885, 33.901720587089407 ], [ -116.686935530654495, 33.901863065466976 ], [ -116.686262080753977, 33.902323716810159 ], [ -116.68165512292164, 33.907183662701911 ], [ -116.680948839597505, 33.907223629385847 ], [ -116.680927382438639, 33.907223629385847 ], [ -116.680900562337499, 33.907158364699015 ], [ -116.680857845649129, 33.90716078177249 ], [ -116.679747209954328, 33.907223629385847 ], [ -116.679725752795463, 33.907223629385847 ], [ -116.679704294738258, 33.907223629385847 ], [ -116.679661379522187, 33.907223629385847 ], [ -116.677816019841373, 33.907063351738984 ], [ -116.677751646568126, 33.907081159967099 ], [ -116.677708731352055, 33.907098968937056 ], [ -116.677644358078794, 33.907098968937056 ], [ -116.676700220630323, 33.907152395079002 ], [ -116.676657305414267, 33.907152395079002 ], [ -116.67659293214102, 33.907170203288565 ], [ -116.676463822675132, 33.907172537605589 ], [ -116.676464186492794, 33.907170203288565 ], [ -116.676340536987198, 33.907233569797405 ], [ -116.675777540340761, 33.907098968937056 ], [ -116.675710570038021, 33.907099712251018 ], [ -116.675706400058445, 33.90709266530618 ], [ -116.675541506203231, 33.906814030190198 ], [ -116.675541506203231, 33.906796221160711 ], [ -116.675520049044351, 33.906778412873066 ], [ -116.675610999873612, 33.906723528938777 ], [ -116.675348387281758, 33.906279767379537 ], [ -116.675348387281758, 33.906261958238431 ], [ -116.675305472065688, 33.906261958238431 ], [ -116.674897776165565, 33.905977016693747 ], [ -116.674950041945436, 33.905993694879427 ], [ -116.674854860949509, 33.905941399026887 ], [ -116.674656483290377, 33.905606177846757 ], [ -116.674876318108375, 33.905282467641861 ], [ -116.675541506203231, 33.904302965045304 ], [ -116.678674326857688, 33.900509513876784 ], [ -116.679205877977594, 33.899865540769554 ], [ -116.681535364917863, 33.897044317030968 ], [ -116.682729826903397, 33.894810116012557 ], [ -116.683054872407482, 33.893508299624422 ], [ -116.68320189517847, 33.893688002052521 ], [ -116.683245810219432, 33.893777309906106 ], [ -116.683523760646452, 33.8941689095237 ], [ -116.683545217805317, 33.894186721190856 ], [ -116.683545217805317, 33.894204532108624 ], [ -116.68356082423675, 33.8943096981723 ], [ -116.683888540432164, 33.894863549109772 ], [ -116.683881874034441, 33.895015547554927 ], [ -116.684296236332301, 33.89536226137372 ], [ -116.684363814794494, 33.895352423223855 ], [ -116.684386941921474, 33.895368588241503 ], [ -116.68480279991428, 33.895659270960152 ], [ -116.685242241378234, 33.895551194045488 ], [ -116.686442003423906, 33.895469128334092 ], [ -116.686520135294046, 33.895478874009591 ], [ -116.687321768497412, 33.895433506277406 ], [ -116.687327786311528, 33.895385773309528 ], [ -116.687391461593776, 33.895391304563795 ], [ -116.688287364003074, 33.895469128334092 ], [ -116.688342070505541, 33.895452962589779 ], [ -116.688361883747447, 33.895457700465556 ], [ -116.688931094040697, 33.895593805788103 ], [ -116.689031322670232, 33.895555123629464 ], [ -116.689054448898901, 33.895571289354358 ], [ -116.689596281237257, 33.895950025761508 ], [ -116.689596281237257, 33.895967837056659 ], [ -116.689676955339664, 33.896048973957292 ], [ -116.689617739294448, 33.896003458890149 ], [ -116.689672949751795, 33.896054872027015 ], [ -116.689574824078377, 33.896199379081175 ], [ -116.689614989551345, 33.896257644581887 ], [ -116.689231501451502, 33.896519974922128 ], [ -116.68922046834318, 33.896530475068374 ], [ -116.689197157959882, 33.896546419898058 ], [ -116.688845262710259, 33.896787137699299 ], [ -116.688823805551394, 33.896787137699299 ], [ -116.688780890335323, 33.896804948819614 ], [ -116.688759432278147, 33.896804948819614 ], [ -116.688737975119253, 33.896822759190556 ], [ -116.688698955896555, 33.896833674621192 ], [ -116.68861420793435, 33.896854517505048 ], [ -116.68772946439752, 33.897072109958366 ], [ -116.687686549181464, 33.897089921019159 ], [ -116.687643633067083, 33.897089921019159 ], [ -116.687576579221016, 33.897086400115661 ], [ -116.687557054338328, 33.897115153411008 ], [ -116.687429056986744, 33.897303649730283 ], [ -116.687429056986744, 33.897321459997059 ], [ -116.687407598929553, 33.897339271005777 ], [ -116.687407598929553, 33.897357081265113 ], [ -116.687364683713483, 33.897392702518289 ], [ -116.687364683713483, 33.897428324502187 ], [ -116.687300310440236, 33.897855778946742 ], [ -116.68726901672899, 33.897964684318644 ] ], [ [ -116.68726901672899, 33.897964684318644 ], [ -116.687268293585177, 33.897965142881453 ], [ -116.687268460671831, 33.897966619229855 ], [ -116.68726901672899, 33.897964684318644 ] ] ] } },
{ "type": "Feature", "properties": { "title": "San Timoteo Canyon", "SymbolID": "Riparian", "SHAPE_Leng": 13018.0986847, "SHAPE_Area": 1443093.7525899999 }, "geometry": { "type": "Polygon", "coordinates": [ [ [ -117.138856393223165, 33.985306164973956 ], [ -117.134221536413051, 33.987725881856761 ], [ -117.129243356077779, 33.986516031654546 ], [ -117.129157525645638, 33.986516031654546 ], [ -117.126754266359271, 33.984950317941497 ], [ -117.12658260459672, 33.984736809155827 ], [ -117.126540062181476, 33.984780933807606 ], [ -117.12658260459672, 33.984594470164048 ], [ -117.126496774164565, 33.984594470164048 ], [ -117.126496774164565, 33.98452329983386 ], [ -117.125367166050978, 33.983787351908042 ], [ -117.120660287711303, 33.983882769394654 ], [ -117.116035063535989, 33.982758648093274 ], [ -117.113869630526167, 33.982232353120082 ], [ -117.111304741862327, 33.980039482412714 ], [ -117.111304741862327, 33.979968309013508 ], [ -117.1112189114302, 33.979968309013508 ], [ -117.109551034595, 33.978881612989902 ], [ -117.109244806101159, 33.979043046421637 ], [ -117.105391023650824, 33.979121175170079 ], [ -117.105296593646472, 33.978829523542501 ], [ -117.102581966604561, 33.978169718381515 ], [ -117.100599683013172, 33.977687917400146 ], [ -117.097254916545538, 33.976874942402844 ], [ -117.097073668860546, 33.976830888886063 ], [ -117.096885186144249, 33.977121315988249 ], [ -117.096799355712122, 33.977121315988249 ], [ -117.094035986981197, 33.975320790076147 ], [ -117.093795281604187, 33.975413074111351 ], [ -117.090698834633912, 33.975475851245072 ], [ -117.086427569138436, 33.975562446663986 ], [ -117.086328011550449, 33.97519954137033 ], [ -117.089376182159043, 33.97360795803143 ], [ -117.089437645789118, 33.973575864785303 ], [ -117.089932900479965, 33.973704797912596 ], [ -117.090190392674671, 33.973704797912596 ], [ -117.096360219675361, 33.973579708078823 ], [ -117.096627694847882, 33.973989512871661 ], [ -117.096885186144249, 33.974131870366186 ], [ -117.097142678338997, 33.974131870366186 ], [ -117.097486000965873, 33.97427422687737 ], [ -117.09757183229631, 33.97427422687737 ], [ -117.103149229350265, 33.976627602658645 ], [ -117.103251436070053, 33.976652444979948 ], [ -117.10332248831746, 33.976694258550509 ], [ -117.106985599755475, 33.977584611562705 ], [ -117.107191655315361, 33.977344338108637 ], [ -117.107356530305964, 33.977263667494171 ], [ -117.107442361636402, 33.977263667494171 ], [ -117.107528192068514, 33.977263667494171 ], [ -117.110011600841162, 33.977213320207646 ], [ -117.110446435744336, 33.977619546706045 ], [ -117.113880746279492, 33.979857170200539 ], [ -117.113793832479118, 33.980110656497246 ], [ -117.115917498319803, 33.981184206422348 ], [ -117.115939599570751, 33.981320597877712 ], [ -117.118496146478861, 33.98194195688675 ], [ -117.118654226612648, 33.981980377838283 ], [ -117.118857843246545, 33.981889975834726 ], [ -117.11911533454294, 33.981889975834726 ], [ -117.11920116587342, 33.981889975834726 ], [ -117.122356741752313, 33.981826004154023 ], [ -117.122711671510942, 33.982057223413626 ], [ -117.123149377429783, 33.981961147624965 ], [ -117.123321038294051, 33.981961147624965 ], [ -117.12349270005663, 33.981961147624965 ], [ -117.123664361819209, 33.982032319355611 ], [ -117.127466474971058, 33.982956400050838 ], [ -117.12764772265605, 33.98300045113826 ], [ -117.127784234239897, 33.98317106266591 ], [ -117.12787006467201, 33.983242233383493 ], [ -117.130899435338335, 33.984773572251846 ], [ -117.131062732887315, 33.984856118025846 ], [ -117.131131630974679, 33.984879148654159 ], [ -117.131217462305116, 33.984950317941497 ], [ -117.133774009213226, 33.985571650416816 ], [ -117.133932089347041, 33.985610069727599 ], [ -117.134221536413051, 33.985519671584491 ], [ -117.134307366845206, 33.985519671584491 ], [ -117.134393197277319, 33.985519671584491 ], [ -117.134564859039898, 33.985519671584491 ], [ -117.137747748195039, 33.985455149946048 ], [ -117.138856393223165, 33.985306164973956 ] ] ] } },
{ "type": "Feature", "properties": { "title": "Oak Glen Preserve", "SymbolID": "Forest", "SHAPE_Leng": 3510.4271703, "SHAPE_Area": 423843.78822300001 }, "geometry": { "type": "Polygon", "coordinates": [ [ [ -116.941072191704592, 34.036094959777586 ], [ -116.941848355873006, 34.037225441154106 ], [ -116.942138186519642, 34.037504017752433 ], [ -116.942316736563825, 34.037855325564422 ], [ -116.942253394556516, 34.037869053137179 ], [ -116.94225864790431, 34.03788569654138 ], [ -116.942577042282025, 34.038894504209416 ], [ -116.942810262896074, 34.039633435307266 ], [ -116.942810262896074, 34.039651216536541 ], [ -116.942831720054954, 34.039686778239528 ], [ -116.942831720054954, 34.039704558713233 ], [ -116.942844594709612, 34.039850362030073 ], [ -116.94287463616935, 34.039793463259016 ], [ -116.942866052766817, 34.039885923649557 ], [ -116.943496908149825, 34.040931432172457 ], [ -116.943518366207002, 34.041038115626385 ], [ -116.943539823365896, 34.041073676747864 ], [ -116.943539823365896, 34.041109237854442 ], [ -116.943582738581966, 34.041180360767193 ], [ -116.944140638187463, 34.042104945762368 ], [ -116.944140638187463, 34.042122726473508 ], [ -116.944112160694658, 34.042193398938721 ], [ -116.944142315342091, 34.042222844603245 ], [ -116.944677079735797, 34.042745037849208 ], [ -116.944698537792974, 34.042762818426148 ], [ -116.944719995850178, 34.042780598254986 ], [ -116.944741453009044, 34.042833939207888 ], [ -116.944741453009044, 34.042851719021812 ], [ -116.944762911066249, 34.042869499576391 ], [ -116.944762911066249, 34.042922840473324 ], [ -116.945127690851962, 34.044078546955305 ], [ -116.945188400795516, 34.044122346013204 ], [ -116.94532081067176, 34.044291906555685 ], [ -116.945269312053142, 34.04438436204218 ], [ -116.945301550792067, 34.044425645792252 ], [ -116.945835794162903, 34.04510977943081 ], [ -116.945835794162903, 34.045163118918694 ], [ -116.945835794162903, 34.045180898244304 ], [ -116.945786049055712, 34.045203551508394 ], [ -116.945773811306609, 34.045235935527636 ], [ -116.945599760025374, 34.045696509719185 ], [ -116.945578301968169, 34.045696509719185 ], [ -116.945535386752098, 34.045696509719185 ], [ -116.945559211870076, 34.045657604743184 ], [ -116.945548161693765, 34.045648812638937 ], [ -116.945063318477025, 34.045500933655561 ], [ -116.945020403260955, 34.045500933655561 ], [ -116.944998945203778, 34.045500933655561 ], [ -116.944928917934135, 34.045543574533909 ], [ -116.944907034973809, 34.045526161498501 ], [ -116.944205011460724, 34.044967540880535 ], [ -116.944119181028583, 34.044896421888112 ], [ -116.944117054716301, 34.044846987059699 ], [ -116.944097293576689, 34.044827995872211 ], [ -116.943475450092635, 34.044220786252275 ], [ -116.94345399293374, 34.044203006725375 ], [ -116.943432534876564, 34.044167446916028 ], [ -116.943378984505841, 34.044137751080775 ], [ -116.943389619660493, 34.044131887091766 ], [ -116.943318545853529, 34.044079664225329 ], [ -116.942831720054954, 34.04345624536483 ], [ -116.942788273036257, 34.043402629391473 ], [ -116.942252363290592, 34.042976180592383 ], [ -116.942209448074522, 34.042958400804551 ], [ -116.942187990017317, 34.042958400804551 ], [ -116.942098881632688, 34.042907427741483 ], [ -116.942079112408237, 34.042888427187336 ], [ -116.941072191704592, 34.042087165791877 ], [ -116.941050733647415, 34.042069385073276 ], [ -116.941007818431345, 34.042016044383885 ], [ -116.940986360374126, 34.042016044383885 ], [ -116.94096490321526, 34.041980482913139 ], [ -116.940492834041876, 34.041375946795021 ], [ -116.940471376883011, 34.041340385800275 ], [ -116.940449918825834, 34.041322604925107 ], [ -116.940035216066462, 34.040924024121551 ], [ -116.937553133207231, 34.04055803791038 ], [ -116.937531675150041, 34.04055803791038 ], [ -116.937510217991147, 34.040575818201432 ], [ -116.936925690523978, 34.04056772454436 ], [ -116.937222904423933, 34.039781189043396 ], [ -116.937789167344746, 34.03911778696942 ], [ -116.937766036624495, 34.039073872178975 ], [ -116.937786268481304, 34.039050168425582 ], [ -116.938270833220301, 34.038482475584125 ], [ -116.939207628737947, 34.03789437778979 ], [ -116.939741815514907, 34.037268541027935 ], [ -116.940449918825834, 34.036824004879037 ], [ -116.941072191704592, 34.036094959777586 ] ] ] } },
{ "type": "Feature", "properties": { "title": "Boruchin Preserve", "SymbolID": "Dune", "SHAPE_Leng": 5500.2845567599998, "SHAPE_Area": 1707725.4387399999 }, "geometry": { "type": "Polygon", "coordinates": [ [ [ -117.365878564452188, 34.063165115342279 ], [ -117.361458283722442, 34.063236219009916 ], [ -117.361243706743764, 34.065049347585948 ], [ -117.361458283722442, 34.066862438111144 ], [ -117.359087182326633, 34.067056764582226 ], [ -117.354591828490257, 34.066791336742128 ], [ -117.353605147728274, 34.06680720799389 ], [ -117.35319825492202, 34.063369088182419 ], [ -117.352846218636913, 34.060394372256027 ], [ -117.352434960018385, 34.056919098920872 ], [ -117.352953345429484, 34.056253707593257 ], [ -117.352961045788106, 34.056161090896069 ], [ -117.353776437588337, 34.055805540793529 ], [ -117.353862268020464, 34.055805540793529 ], [ -117.356399734711957, 34.055955385220642 ], [ -117.356485132156109, 34.055960428232638 ], [ -117.356523019501523, 34.056018870885147 ], [ -117.356608849933679, 34.056018870885147 ], [ -117.356651765149749, 34.056018870885147 ], [ -117.35669468036582, 34.056018870885147 ], [ -117.358536029967198, 34.056081542298017 ], [ -117.358577739644176, 34.056084005004934 ], [ -117.358582956161015, 34.055983316031188 ], [ -117.359107804950611, 34.055658393259186 ], [ -117.360900384116917, 34.056409974782767 ], [ -117.360943299332988, 34.056409974782767 ], [ -117.360986215447369, 34.056445529457747 ], [ -117.362917405560324, 34.057796599777411 ], [ -117.362960320776395, 34.057796599777411 ], [ -117.363003235992466, 34.057832153870756 ], [ -117.363046151208536, 34.057867708693443 ], [ -117.363943551109386, 34.058495525635664 ], [ -117.36414234648511, 34.058327302590342 ], [ -117.364161950419572, 34.058401019568777 ], [ -117.365374957225796, 34.058909585489943 ], [ -117.36578382632571, 34.05908100752022 ], [ -117.365878564452188, 34.063165115342279 ] ] ] } },
{ "type": "Feature", "properties": { "title": "University of Redlands", "SymbolID": "Urban", "SHAPE_Leng": 0.0, "SHAPE_Area": 0.0 }, "geometry": { "type": "Polygon", "coordinates": [ [ [ -117.167211550687071, 34.066310124852158 ], [ -117.160475701599324, 34.066390411274469 ], [ -117.160512046108764, 34.064262795380444 ], [ -117.1604393570898, 34.06274733827626 ], [ -117.160451471926322, 34.060740068604268 ], [ -117.160730113165556, 34.060388791523771 ], [ -117.161093558260262, 34.060208134172477 ], [ -117.161493347864322, 34.060208134172477 ], [ -117.161881022631988, 34.060208134172477 ], [ -117.162196008380704, 34.060208134172477 ], [ -117.163359032683644, 34.060228207230594 ], [ -117.163770937124212, 34.060288426376168 ], [ -117.164098037709479, 34.060549375512679 ], [ -117.164473597640594, 34.060559412001808 ], [ -117.16482492789882, 34.060569448489815 ], [ -117.16537009554078, 34.060589521462312 ], [ -117.16593949285577, 34.060559412001808 ], [ -117.166726957227496, 34.06027838985483 ], [ -117.166920794611329, 34.060489156552414 ], [ -117.166763301736992, 34.061161599179101 ], [ -117.16673907206399, 34.061623273117256 ], [ -117.166884450101904, 34.062125089762688 ], [ -117.167138861668136, 34.062576722202948 ], [ -117.167260010033047, 34.063118677954158 ], [ -117.167211550687071, 34.066310124852158 ] ] ] } }
]
}
